[{"OBJECT_NAME":"ONEWEB-0156","OBJECT_ID":"2021-025L","EPOCH":"2025-11-17T10:05:41.561088","MEAN_MOTION":13.134688,"ECCENTRICITY":0.0001746,"INCLINATION":87.9016,"RA_OF_ASC_NODE":2.3001,"ARG_OF_PERICENTER":93.3565,"MEAN_ANOMALY":266.7764,"EPHEMERIS_TYPE":0,"CLASSIFICATION_TYPE":"U","NORAD_CAT_ID":48052,"ELEMENT_SET_NO":999,"REV_AT_EPOCH":22577,"BSTAR":0.00081147,"MEAN_MOTION_DOT":3.09e-6,"MEAN_MOTION_DDOT":0},{"OBJECT_NAME":"ONEWEB-0161","OBJECT_ID":"2021-025M","EPOCH":"2025-11-17T09:29:07.018368","MEAN_MOTION":13.13469222,"ECCENTRICITY":0.000178,"INCLINATION":87.9006,"RA_OF_ASC_NODE":2.3218,"ARG_OF_PERICENTER":90.9624,"MEAN_ANOMALY":269.1709,"EPHEMERIS_TYPE":0,"CLASSIFICATION_TYPE":"U","NORAD_CAT_ID":48053,"ELEMENT_SET_NO":999,"REV_AT_EPOCH":22570,"BSTAR":0.00020123,"MEAN_MOTION_DOT":8.6e-7,"MEAN_MOTION_DDOT":0},{"OBJECT_NAME":"ONEWEB-0158","OBJECT_ID":"2021-025N","EPOCH":"2025-11-17T04:51:13.634496","MEAN_MOTION":13.13468091,"ECCENTRICITY":0.00020813,"INCLINATION":87.9018,"RA_OF_ASC_NODE":2.3432,"ARG_OF_PERICENTER":103.7686,"MEAN_ANOMALY":256.3675,"EPHEMERIS_TYPE":0,"CLASSIFICATION_TYPE":"U","NORAD_CAT_ID":48054,"ELEMENT_SET_NO":999,"REV_AT_EPOCH":22580,"BSTAR":0.00040149455,"MEAN_MOTION_DOT":1.59e-6,"MEAN_MOTION_DDOT":0},{"OBJECT_NAME":"ONEWEB-0157","OBJECT_ID":"2021-025P","EPOCH":"2025-11-17T09:07:10.628832","MEAN_MOTION":13.13468629,"ECCENTRICITY":0.0001834,"INCLINATION":87.9014,"RA_OF_ASC_NODE":2.3142,"ARG_OF_PERICENTER":83.9965,"MEAN_ANOMALY":276.1373,"EPHEMERIS_TYPE":0,"CLASSIFICATION_TYPE":"U","NORAD_CAT_ID":48055,"ELEMENT_SET_NO":999,"REV_AT_EPOCH":22576,"BSTAR":-0.00073475,"MEAN_MOTION_DOT":-2.56e-6,"MEAN_MOTION_DDOT":0},{"OBJECT_NAME":"ONEWEB-0162","OBJECT_ID":"2021-025Q","EPOCH":"2025-11-17T08:32:52.731168","MEAN_MOTION":13.13470354,"ECCENTRICITY":0.0001675,"INCLINATION":87.9019,"RA_OF_ASC_NODE":2.3205,"ARG_OF_PERICENTER":96.3262,"MEAN_ANOMALY":263.8057,"EPHEMERIS_TYPE":0,"CLASSIFICATION_TYPE":"U","NORAD_CAT_ID":48056,"ELEMENT_SET_NO":999,"REV_AT_EPOCH":22573,"BSTAR":0.0003881,"MEAN_MOTION_DOT":1.54e-6,"MEAN_MOTION_DDOT":0},{"OBJECT_NAME":"ONEWEB-0155","OBJECT_ID":"2021-025R","EPOCH":"2025-11-17T08:42:49.654080","MEAN_MOTION":13.13470456,"ECCENTRICITY":0.0001958,"INCLINATION":87.9017,"RA_OF_ASC_NODE":2.3245,"ARG_OF_PERICENTER":93.3081,"MEAN_ANOMALY":266.8272,"EPHEMERIS_TYPE":0,"CLASSIFICATION_TYPE":"U","NORAD_CAT_ID":48057,"ELEMENT_SET_NO":999,"REV_AT_EPOCH":22587,"BSTAR":-0.00026184,"MEAN_MOTION_DOT":-8.3e-7,"MEAN_MOTION_DDOT":0},{"OBJECT_NAME":"ONEWEB-0149","OBJECT_ID":"2021-025S","EPOCH":"2025-11-17T09:14:30.144768","MEAN_MOTION":13.13470005,"ECCENTRICITY":0.0001624,"INCLINATION":87.9013,"RA_OF_ASC_NODE":2.3138,"ARG_OF_PERICENTER":96.9227,"MEAN_ANOMALY":263.2087,"EPHEMERIS_TYPE":0,"CLASSIFICATION_TYPE":"U","NORAD_CAT_ID":48058,"ELEMENT_SET_NO":999,"REV_AT_EPOCH":22568,"BSTAR":-0.00064493,"MEAN_MOTION_DOT":-2.23e-6,"MEAN_MOTION_DDOT":0},{"OBJECT_NAME":"ONEWEB-0148","OBJECT_ID":"2021-025T","EPOCH":"2025-11-17T08:20:52.403136","MEAN_MOTION":13.13468593,"ECCENTRICITY":0.0001229,"INCLINATION":87.9008,"RA_OF_ASC_NODE":2.3428,"ARG_OF_PERICENTER":89.5048,"MEAN_ANOMALY":270.6222,"EPHEMERIS_TYPE":0,"CLASSIFICATION_TYPE":"U","NORAD_CAT_ID":48059,"ELEMENT_SET_NO":999,"REV_AT_EPOCH":22580,"BSTAR":0.0007791,"MEAN_MOTION_DOT":2.97e-6,"MEAN_MOTION_DDOT":0},{"OBJECT_NAME":"ONEWEB-0160","OBJECT_ID":"2021-025U","EPOCH":"2025-11-17T08:45:15.194016","MEAN_MOTION":13.13468916,"ECCENTRICITY":0.0002189,"INCLINATION":87.9009,"RA_OF_ASC_NODE":2.3367,"ARG_OF_PERICENTER":117.6131,"MEAN_ANOMALY":242.522,"EPHEMERIS_TYPE":0,"CLASSIFICATION_TYPE":"U","NORAD_CAT_ID":48060,"ELEMENT_SET_NO":999,"REV_AT_EPOCH":22575,"BSTAR":-0.00028999,"MEAN_MOTION_DOT":-9.3e-7,"MEAN_MOTION_DDOT":0},{"OBJECT_NAME":"ONEWEB-0163","OBJECT_ID":"2021-025V","EPOCH":"2025-11-17T08:23:19.193280","MEAN_MOTION":13.13468687,"ECCENTRICITY":0.0001879,"INCLINATION":87.9016,"RA_OF_ASC_NODE":2.3241,"ARG_OF_PERICENTER":88.5284,"MEAN_ANOMALY":271.606,"EPHEMERIS_TYPE":0,"CLASSIFICATION_TYPE":"U","NORAD_CAT_ID":48061,"ELEMENT_SET_NO":999,"REV_AT_EPOCH":22587,"BSTAR":0.00066702,"MEAN_MOTION_DOT":2.56e-6,"MEAN_MOTION_DDOT":0},{"OBJECT_NAME":"ONEWEB-0159","OBJECT_ID":"2021-025W","EPOCH":"2025-11-17T11:50:31.633152","MEAN_MOTION":13.13469228,"ECCENTRICITY":0.0001745,"INCLINATION":87.9016,"RA_OF_ASC_NODE":2.2789,"ARG_OF_PERICENTER":90.4824,"MEAN_ANOMALY":269.6505,"EPHEMERIS_TYPE":0,"CLASSIFICATION_TYPE":"U","NORAD_CAT_ID":48062,"ELEMENT_SET_NO":999,"REV_AT_EPOCH":22581,"BSTAR":0.00097385,"MEAN_MOTION_DOT":3.68e-6,"MEAN_MOTION_DDOT":0},{"OBJECT_NAME":"ONEWEB-0164","OBJECT_ID":"2021-025X","EPOCH":"2025-11-17T09:34:00.293664","MEAN_MOTION":13.13470035,"ECCENTRICITY":0.0001902,"INCLINATION":87.9014,"RA_OF_ASC_NODE":2.305,"ARG_OF_PERICENTER":98.2571,"MEAN_ANOMALY":261.8774,"EPHEMERIS_TYPE":0,"CLASSIFICATION_TYPE":"U","NORAD_CAT_ID":48063,"ELEMENT_SET_NO":999,"REV_AT_EPOCH":22578,"BSTAR":0.0002449,"MEAN_MOTION_DOT":1.02e-6,"MEAN_MOTION_DDOT":0},{"OBJECT_NAME":"ONEWEB-0167","OBJECT_ID":"2021-025Y","EPOCH":"2025-11-17T08:24:32.018112","MEAN_MOTION":13.13470589,"ECCENTRICITY":0.0002423,"INCLINATION":87.9008,"RA_OF_ASC_NODE":2.3443,"ARG_OF_PERICENTER":85.3892,"MEAN_ANOMALY":274.7513,"EPHEMERIS_TYPE":0,"CLASSIFICATION_TYPE":"U","NORAD_CAT_ID":48064,"ELEMENT_SET_NO":999,"REV_AT_EPOCH":22576,"BSTAR":0.00068784,"MEAN_MOTION_DOT":2.64e-6,"MEAN_MOTION_DDOT":0},{"OBJECT_NAME":"ONEWEB-0166","OBJECT_ID":"2021-025Z","EPOCH":"2025-11-17T03:28:21.229824","MEAN_MOTION":13.13469211,"ECCENTRICITY":0.00016844,"INCLINATION":87.9011,"RA_OF_ASC_NODE":2.3392,"ARG_OF_PERICENTER":94.2367,"MEAN_ANOMALY":265.8954,"EPHEMERIS_TYPE":0,"CLASSIFICATION_TYPE":"U","NORAD_CAT_ID":48065,"ELEMENT_SET_NO":999,"REV_AT_EPOCH":22581,"BSTAR":-0.00090016033,"MEAN_MOTION_DOT":-3.16e-6,"MEAN_MOTION_DDOT":0},{"OBJECT_NAME":"ONEWEB-0151","OBJECT_ID":"2021-025AA","EPOCH":"2025-11-17T08:59:52.579104","MEAN_MOTION":13.13469804,"ECCENTRICITY":0.0001967,"INCLINATION":87.9015,"RA_OF_ASC_NODE":2.3198,"ARG_OF_PERICENTER":94.6495,"MEAN_ANOMALY":265.4859,"EPHEMERIS_TYPE":0,"CLASSIFICATION_TYPE":"U","NORAD_CAT_ID":48066,"ELEMENT_SET_NO":999,"REV_AT_EPOCH":22578,"BSTAR":-0.00055854,"MEAN_MOTION_DOT":-1.91e-6,"MEAN_MOTION_DDOT":0},{"OBJECT_NAME":"ONEWEB-0170","OBJECT_ID":"2021-025AB","EPOCH":"2025-11-17T03:42:59.412384","MEAN_MOTION":13.13470825,"ECCENTRICITY":0.00022709,"INCLINATION":87.9007,"RA_OF_ASC_NODE":2.3694,"ARG_OF_PERICENTER":102.804,"MEAN_ANOMALY":257.3343,"EPHEMERIS_TYPE":0,"CLASSIFICATION_TYPE":"U","NORAD_CAT_ID":48067,"ELEMENT_SET_NO":999,"REV_AT_EPOCH":22571,"BSTAR":-0.00079251695,"MEAN_MOTION_DOT":-2.77e-6,"MEAN_MOTION_DDOT":0},{"OBJECT_NAME":"ONEWEB-0168","OBJECT_ID":"2021-025AC","EPOCH":"2025-11-17T08:50:07.849824","MEAN_MOTION":13.13468975,"ECCENTRICITY":0.0001791,"INCLINATION":87.902,"RA_OF_ASC_NODE":2.3107,"ARG_OF_PERICENTER":90.7785,"MEAN_ANOMALY":269.3549,"EPHEMERIS_TYPE":0,"CLASSIFICATION_TYPE":"U","NORAD_CAT_ID":48068,"ELEMENT_SET_NO":999,"REV_AT_EPOCH":22575,"BSTAR":-0.0006661,"MEAN_MOTION_DOT":-2.3e-6,"MEAN_MOTION_DDOT":0},{"OBJECT_NAME":"ONEWEB-0173","OBJECT_ID":"2021-025AD","EPOCH":"2025-11-17T08:37:56.589600","MEAN_MOTION":13.13469303,"ECCENTRICITY":0.000198,"INCLINATION":87.9016,"RA_OF_ASC_NODE":2.32,"ARG_OF_PERICENTER":84.8385,"MEAN_ANOMALY":275.297,"EPHEMERIS_TYPE":0,"CLASSIFICATION_TYPE":"U","NORAD_CAT_ID":48069,"ELEMENT_SET_NO":999,"REV_AT_EPOCH":22599,"BSTAR":3.7937e-5,"MEAN_MOTION_DOT":2.7e-7,"MEAN_MOTION_DDOT":0},{"OBJECT_NAME":"ONEWEB-0171","OBJECT_ID":"2021-025AE","EPOCH":"2025-11-17T09:31:33.304800","MEAN_MOTION":13.1347062,"ECCENTRICITY":0.0002043,"INCLINATION":87.8999,"RA_OF_ASC_NODE":2.3389,"ARG_OF_PERICENTER":95.8984,"MEAN_ANOMALY":264.2378,"EPHEMERIS_TYPE":0,"CLASSIFICATION_TYPE":"U","NORAD_CAT_ID":48070,"ELEMENT_SET_NO":999,"REV_AT_EPOCH":22581,"BSTAR":-0.00034199,"MEAN_MOTION_DOT":-1.12e-6,"MEAN_MOTION_DDOT":0},{"OBJECT_NAME":"ONEWEB-0172","OBJECT_ID":"2021-025AF","EPOCH":"2025-11-17T03:33:13.945248","MEAN_MOTION":13.13469475,"ECCENTRICITY":0.00019815,"INCLINATION":87.902,"RA_OF_ASC_NODE":2.3667,"ARG_OF_PERICENTER":93.4123,"MEAN_ANOMALY":266.7232,"EPHEMERIS_TYPE":0,"CLASSIFICATION_TYPE":"U","NORAD_CAT_ID":48071,"ELEMENT_SET_NO":999,"REV_AT_EPOCH":22667,"BSTAR":-0.00083327599,"MEAN_MOTION_DOT":-2.92e-6,"MEAN_MOTION_DDOT":0},{"OBJECT_NAME":"ONEWEB-0174","OBJECT_ID":"2021-025AG","EPOCH":"2025-11-17T08:35:30.319584","MEAN_MOTION":13.13469129,"ECCENTRICITY":0.0001684,"INCLINATION":87.901,"RA_OF_ASC_NODE":2.3316,"ARG_OF_PERICENTER":93.7946,"MEAN_ANOMALY":266.3376,"EPHEMERIS_TYPE":0,"CLASSIFICATION_TYPE":"U","NORAD_CAT_ID":48072,"ELEMENT_SET_NO":999,"REV_AT_EPOCH":22602,"BSTAR":0.00015342,"MEAN_MOTION_DOT":6.9e-7,"MEAN_MOTION_DDOT":0},{"OBJECT_NAME":"ONEWEB-0175","OBJECT_ID":"2021-025AH","EPOCH":"2025-11-17T09:19:22.918944","MEAN_MOTION":13.13469613,"ECCENTRICITY":0.0002194,"INCLINATION":87.9013,"RA_OF_ASC_NODE":2.2931,"ARG_OF_PERICENTER":96.5644,"MEAN_ANOMALY":263.5735,"EPHEMERIS_TYPE":0,"CLASSIFICATION_TYPE":"U","NORAD_CAT_ID":48073,"ELEMENT_SET_NO":999,"REV_AT_EPOCH":22568,"BSTAR":-0.00044026,"MEAN_MOTION_DOT":-1.48e-6,"MEAN_MOTION_DDOT":0},{"OBJECT_NAME":"ONEWEB-0177","OBJECT_ID":"2021-025AJ","EPOCH":"2025-11-17T09:36:26.472096","MEAN_MOTION":13.13469305,"ECCENTRICITY":0.0001779,"INCLINATION":87.9012,"RA_OF_ASC_NODE":2.3096,"ARG_OF_PERICENTER":91.0486,"MEAN_ANOMALY":269.0847,"EPHEMERIS_TYPE":0,"CLASSIFICATION_TYPE":"U","NORAD_CAT_ID":48074,"ELEMENT_SET_NO":999,"REV_AT_EPOCH":22587,"BSTAR":0.00033074,"MEAN_MOTION_DOT":1.34e-6,"MEAN_MOTION_DDOT":0},{"OBJECT_NAME":"ONEWEB-0178","OBJECT_ID":"2021-025AK","EPOCH":"2025-11-17T10:03:27.921888","MEAN_MOTION":13.13469643,"ECCENTRICITY":0.0002044,"INCLINATION":87.9006,"RA_OF_ASC_NODE":2.3499,"ARG_OF_PERICENTER":91.2969,"MEAN_ANOMALY":268.8394,"EPHEMERIS_TYPE":0,"CLASSIFICATION_TYPE":"U","NORAD_CAT_ID":48075,"ELEMENT_SET_NO":999,"REV_AT_EPOCH":22592,"BSTAR":0.0011221,"MEAN_MOTION_DOT":4.23e-6,"MEAN_MOTION_DDOT":0}]
